id,name,address1,address2,city,zip,phone,website,clp,latitude,longitude,id,lastUpdatedDate,lastUpdatedBy,schoolOpeningDate,infrastructureLEA,operatingModel,id,name,contactName,phone,zip,studentCases,staffCases,lastWeekStudentCases,lastWeekStaffCases
985,Achievement School District,710 James Robertson Pkwy,State Dept. of Education,Nashville,37243,6152534176,http://achievementschooldistrict.org/,https://eplan.tn.gov/DocumentLibrary/ViewDocument.aspx?DocumentGuid=ef6f9d9c-bef7-4edd-95ed-820e96435740&inline=true,36.16795,-86.787124,148,2020-10-26T22:01:23.000Z,katrice.bullock8659@tneducation.net,2020-08-31T00:00:00.000Z,False,,9,Southwest CORE Region,Audrey Johnson,(901) 484-3389,38301,0,1,0,0
171,Alamo,265 East  Park St,,Alamo,38001,7316965515,http://www.alamoschool.org/,https://eplan.tn.gov/DocumentLibrary/ViewDocument.aspx?DocumentGuid=a4fc1264-408e-42c6-9613-7f140466c41f&inline=true,35.783283,-89.11156,33,2020-11-02T19:32:40.000Z,reecha.black@tneducation.net,2020-08-24T00:00:00.000Z,False,,1,Northwest Tennessee CORE Region,Pennye Thurmond,(731) 881-7565,38229,0,0,0,0
51,Alcoa,524 Faraday St,Alcoa City Education Building,Alcoa,37701,8659840531,https://www.alcoaschools.net/,https://eplan.tn.gov/DocumentLibrary/ViewDocument.aspx?DocumentGuid=91e3e14c-dd88-4ed1-9d4f-7b224d5be975&inline=true,35.792157,-83.979925,9,2020-10-05T13:43:36.000Z,rebecca.stone@tneducation.net,2020-07-22T00:00:00.000Z,False,,5,East Tennessee CORE Region,Ginger Leach,(865) 594-9445,37920,,,3,0
961,Alvin C York Institute,701 North Main St,,Jamestown,38556,9318798101,http://www2.york.k12.tn.us/,https://eplan.tn.gov/DocumentLibrary/ViewDocument.aspx?DocumentGuid=755255ec-647e-4ef0-a24f-2e9b7523afe6&inline=true,36.414922,-84.935918,144,2021-02-09T22:12:00.000Z,vijay.gollapudi@tnedu.gov,2020-08-03T00:00:00.000Z,False,,4,Upper Cumberland CORE Region,Janice Fox,(931) 544-7079,38501,0,0,0,0
10,Anderson County,101 South Main St,,Clinton,37716,8654632800,https://www.acs.ac/,https://eplan.tn.gov/DocumentLibrary/ViewDocument.aspx?DocumentGuid=1e2bda42-c688-47c2-bced-2e606c00f98e&inline=true,36.09973,-84.134329,2,2021-01-11T20:58:45.000Z,william.deal@tneducation.net,2020-08-05T00:00:00.000Z,True,,5,East Tennessee CORE Region,Ginger Leach,(865) 594-9445,37920,,,,
793,Arlington,12060 Arlington Trl,,Arlington,38002,9013892497,https://www.acsk-12.org,https://eplan.tn.gov/DocumentLibrary/ViewDocument.aspx?DocumentGuid=c8c5672e-6fb1-4d40-94e7-b2d668e2ad7f&inline=true,35.261913,-89.660275,116,2020-09-21T14:01:25.000Z,tyler.hill@tneducation.net,2020-08-10T00:00:00.000Z,False,,9,Southwest CORE Region,Audrey Johnson,(901) 484-3389,38301,0,0,0,0
541,Athens,943  Crestway  Dr,,Athens,37303,4237452863,https://www.athenscityschools.net/,https://eplan.tn.gov/DocumentLibrary/ViewDocument.aspx?DocumentGuid=0d1144a0-5e9b-4fd3-94fb-7e58975c64ee&inline=true,35.433021,-84.606046,83,2020-11-09T16:04:49.000Z,robert.greene13@tneducation.net,2020-08-10T00:00:00.000Z,False,,7,Southeast Tennessee CORE Region,Sharon Harper,(423) 260-1168,37406,4,1,2,2
794,Bartlett,5705 Stage Rd,,Bartlett,38134,9012020855,http://www.bartlettschools.org/,https://eplan.tn.gov/DocumentLibrary/ViewDocument.aspx?DocumentGuid=ec137f3c-29c8-410b-810a-6ab38c126728&inline=true,35.203902,-89.873063,117,2021-03-12T21:21:29.000Z,david.stephens2368@tneducation.net,2020-08-10T00:00:00.000Z,False,,9,Southwest CORE Region,Audrey Johnson,(901) 484-3389,38301,,,0,0
20,Bedford County,500  Madison  St,,Shelbyville,37160,9316843284,https://www.bedfordk12tn.com/,https://eplan.tn.gov/DocumentLibrary/ViewDocument.aspx?DocumentGuid=b55e9180-ed4b-4096-938b-a3fbb98c5412&inline=true,35.487764,-86.453668,5,2021-01-29T20:21:47.000Z,terise.rhodes@tneducation.net,2020-08-03T00:00:00.000Z,False,,8,South Central CORE Region,Bill Byford,(931) 488-3050,37160,6,2,6,2
172,Bells,4547 Hwy  88 South ,,Bells,38006,7316632041,http://www.bellscityschool.org/,https://eplan.tn.gov/DocumentLibrary/ViewDocument.aspx?DocumentGuid=34e26168-82e0-483a-afa2-6b0af1c0a282&inline=true,35.724059,-89.092398,34,2021-02-22T14:48:57.000Z,mark.wallace@tneducation.net,2020-08-24T00:00:00.000Z,False,,1,Northwest Tennessee CORE Region,Pennye Thurmond,(731) 881-7565,38229,0,0,,
30,Benton County,197  Briarwood  St,,Camden,38320,7315846111,https://www.bentoncountyschools.org/,https://eplan.tn.gov/DocumentLibrary/ViewDocument.aspx?DocumentGuid=16ce5ca6-2e0a-433f-ae91-ccb3ab0d7ae6&inline=true,36.072606,-88.112241,6,2021-02-08T22:00:47.000Z,mark.florence@tneducation.net,2020-08-03T00:00:00.000Z,False,,1,Northwest Tennessee CORE Region,Pennye Thurmond,(731) 881-7565,38229,,,3,0
40,Bledsoe County,478 Spring St,,Pikeville,37367,4234472914,http://www.bledsoecountyschools.org/,https://eplan.tn.gov/DocumentLibrary/ViewDocument.aspx?DocumentGuid=62181c1f-7103-44fc-94c9-4f0ac26d5304&inline=true,35.95263,-85.476245,7,2021-03-08T16:29:07.000Z,michelle.rains@tneducation.net,2020-08-24T00:00:00.000Z,False,,4,Upper Cumberland CORE Region,Janice Fox,(931) 544-7079,38501,2,2,2,0
50,Blount County,831  Grandview  Dr,,Maryville,37803,8659841212,http://www.blountk12.org/,https://eplan.tn.gov/DocumentLibrary/ViewDocument.aspx?DocumentGuid=981acac2-2746-4cce-9ee0-88fcb2803030&inline=true,35.751459,-83.936497,8,2020-11-30T13:16:48.000Z,amanda.vance@tneducation.net,2020-07-24T00:00:00.000Z,False,,5,East Tennessee CORE Region,Ginger Leach,(865) 594-9445,37920,0,0,0,0
274,Bradford,106 W Front St,,Bradford,38316,7317423180,http://www.bradfordspecial.com/,https://eplan.tn.gov/DocumentLibrary/ViewDocument.aspx?DocumentGuid=c8e9f954-0b3c-4fee-8bbe-4fffa46d6254&inline=true,36.076923,-88.810498,48,2020-10-12T16:18:53.000Z,dan.black@tneducation.net,2020-07-31T00:00:00.000Z,False,,1,Northwest Tennessee CORE Region,Pennye Thurmond,(731) 881-7565,38229,0,0,0,0
60,Bradley County,800  South  Lee Hwy,,Cleveland,37311,4234760620,https://www.bradleyschools.org/,https://eplan.tn.gov/DocumentLibrary/ViewDocument.aspx?DocumentGuid=f5921a44-2ef9-4ff8-98a5-f12e3f93ab7f&inline=true,35.155355,-84.890356,11,2021-03-01T13:15:10.000Z,patty.phillips@tneducation.net,2020-08-05T00:00:00.000Z,False,,7,Southeast Tennessee CORE Region,Sharon Harper,(423) 260-1168,37406,,,9,5
821,Bristol,615 Martin Luther King Jr Blvd,,Bristol,37620,4236529451,www.btcs.org/,https://eplan.tn.gov/DocumentLibrary/ViewDocument.aspx?DocumentGuid=1efd1182-b5fc-40b8-9011-2d8943000528&inline=true,36.58897,-82.181971,125,2020-11-09T20:22:09.000Z,rebecca.craddock@tneducation.net,2020-08-03T00:00:00.000Z,True,,6,First Tennessee CORE Region,Dr. Greg Sturgill,(423) 357-3641,37642,6,1,5,0
70,Campbell County,172 Valley St,,Jacksboro,37757,4235628377,http://www.campbell.k12.tn.us/,https://eplan.tn.gov/DocumentLibrary/ViewDocument.aspx?DocumentGuid=0f112852-d996-4c6d-9562-fa4c84866754&inline=true,36.331976,-84.182391,13,2021-03-08T19:02:09.000Z,ernie.m.clawson@tneducation.net,2020-08-05T00:00:00.000Z,False,,5,East Tennessee CORE Region,Ginger Leach,(865) 594-9445,37920,,,,
80,Cannon County,301 West Main St,,Woodbury,37190,6292014801,http://www.ccstn.net/,https://eplan.tn.gov/DocumentLibrary/ViewDocument.aspx?DocumentGuid=29172aa4-9540-40ac-b9db-edccb282fbd1&inline=true,35.827881,-86.071269,14,2021-02-22T20:21:01.000Z,leslie.pelham@tneducation.net,2020-08-11T00:00:00.000Z,False,,4,Upper Cumberland CORE Region,Janice Fox,(931) 544-7079,38501,8,0,0,0
90,Carroll County,14155 Paris St,,Huntingdon,38344,7319864482,http://www.carrollschools.com/,,36.018131,-88.439196,15,2020-08-01T00:00:00.000Z,district.technology@tn.gov,2020-08-04T00:00:00.000Z,False,,1,Northwest Tennessee CORE Region,Pennye Thurmond,(731) 881-7565,38229,,,,
100,Carter County,305  Academy  St,,Elizabethton,37643,4235474000,http://www.carterk12.net/,https://eplan.tn.gov/DocumentLibrary/ViewDocument.aspx?DocumentGuid=f3ab60b0-9183-4b2a-ad9f-1c5fbfe09093&inline=true,36.350485,-82.212453,21,2021-01-21T20:16:18.000Z,beth.bare@tneducation.net,2020-08-04T00:00:00.000Z,False,,6,First Tennessee CORE Region,Dr. Greg Sturgill,(423) 357-3641,37642,,,,
110,Cheatham County,102  Elizabeth  St,,Ashland City,37015,6157925664,https://www.cheathamcountyschools.net/,https://eplan.tn.gov/DocumentLibrary/ViewDocument.aspx?DocumentGuid=7cc99129-41d2-4127-9d70-744537b00b5c&inline=true,36.269716,-87.062972,23,2021-01-11T17:21:38.000Z,cathy.beck@tneducation.net,2020-08-13T00:00:00.000Z,False,,3,Mid Cumberland CORE Region,Christie Southerland,(615) 532-3270,37210,3,4,12,0
120,Chester County,970 East Main St,,Henderson,38340,7319895134,https://www.chestercountyschools.org/,https://eplan.tn.gov/DocumentLibrary/ViewDocument.aspx?DocumentGuid=d6f55301-de18-44e0-bfc5-edb2dbb2be92&inline=true,35.444414,-88.619566,24,2020-10-25T20:49:03.000Z,troy.kilzer@tneducation.net,2020-08-03T00:00:00.000Z,False,,9,Southwest CORE Region,Audrey Johnson,(901) 484-3389,38301,0,0,0,0
130,Claiborne County,1403 Tazewell Rd,,Tazewell,37879,4236263543,http://www.claibornecountyschools.com/,https://eplan.tn.gov/DocumentLibrary/ViewDocument.aspx?DocumentGuid=dacd083b-c17c-46ff-9036-97fcb03403b9&inline=true,36.448774,-83.579286,25,2021-02-01T17:34:00.000Z,linda.keck@tneducation.net,2020-08-10T00:00:00.000Z,False,,5,East Tennessee CORE Region,Ginger Leach,(865) 594-9445,37920,,,20,4
140,Clay County,520 South Brown St,,Celina,38551,9312433310,http://www.clayedu.com/,https://eplan.tn.gov/DocumentLibrary/ViewDocument.aspx?DocumentGuid=f56c6617-111e-40d6-8627-895425842523&inline=true,36.54668,-85.505667,26,2020-11-09T19:05:14.000Z,Janice.Fox@tnedu.gov,2020-07-31T00:00:00.000Z,False,,4,Upper Cumberland CORE Region,Janice Fox,(931) 544-7079,38501,,,2,0
61,Cleveland,4300  Mouse  Creek Nw Rd,,Cleveland,37312,4234729571,https://www.clevelandschools.org/,https://drive.google.com/file/d/1WQXDp3OJvJxL1IdLUlzbTo4NKBXXQP2u/view?usp=sharing,35.208747,-84.859208,12,2020-09-08T18:08:12.000Z,district.technology@tn.gov,2020-08-03T00:00:00.000Z,False,,7,Southeast Tennessee CORE Region,Sharon Harper,(423) 260-1168,37406,,,,
11,Clinton,212  N  Hicks St,,Clinton,37716,8654570159,http://www.clintonschools.org/,https://eplan.tn.gov/DocumentLibrary/ViewDocument.aspx?DocumentGuid=ddbc531f-237c-4845-95c4-fa1c702aeaca&inline=true,36.102867,-84.133541,3,2021-03-08T19:02:15.000Z,kelly.johnson9299@tneducation.net,2020-08-07T00:00:00.000Z,False,,5,East Tennessee CORE Region,Ginger Leach,(865) 594-9445,37920,0,0,0,0
150,Cocke County,305 Hedrick Dr,,Newport,37821,4236237821,https://cockecountyschools.org/,https://eplan.tn.gov/DocumentLibrary/ViewDocument.aspx?DocumentGuid=2e29fccf-57ee-4df6-b015-e69cc8985fbc&inline=true,35.965545,-83.195795,27,2021-01-19T13:11:34.000Z,dennis.balch@tneducation.net,2020-08-19T00:00:00.000Z,False,,6,First Tennessee CORE Region,Dr. Greg Sturgill,(423) 357-3641,37642,0,0,0,0
160,Coffee County,1343  McArthur  St,,Manchester,37355,9317235150,http://www.coffeecountyschools.com/,https://eplan.tn.gov/DocumentLibrary/ViewDocument.aspx?DocumentGuid=ecc348f3-e83f-4634-8943-85fc373a9b7a&inline=true,35.459121,-86.090581,29,2020-10-12T19:29:07.000Z,charles.lawson42@tneducation.net,2020-08-03T00:00:00.000Z,False,,8,South Central CORE Region,Bill Byford,(931) 488-3050,37160,7,0,11,0
795,Collierville,145 W. Poplar Ave,,Collierville,38017,9018617000,https://www.colliervilleschools.org/,https://eplan.tn.gov/DocumentLibrary/ViewDocument.aspx?DocumentGuid=e7ef1452-2716-4f1f-81ed-15794a0503e9&inline=true,35.044962,-89.667209,118,2020-12-07T21:33:17.000Z,meghan.seay@tneducation.net,2020-08-10T00:00:00.000Z,False,,9,Southwest CORE Region,Audrey Johnson,(901) 484-3389,38301,9,1,15,6
170,Crockett County,102 North Cavalier Dr,,Alamo,38001,7316962604,https://www.ccschools.net/,,35.792823,-89.14309,32,2020-09-07T15:36:58.000Z,district.technology@tn.gov,2020-08-03T00:00:00.000Z,False,,1,Northwest Tennessee CORE Region,Pennye Thurmond,(731) 881-7565,38229,0,0,2,0
180,Cumberland County,368 4th St,,Crossville,38555,9314846135,https://www.ccschools.k12tn.net/,https://eplan.tn.gov/DocumentLibrary/ViewDocument.aspx?DocumentGuid=1439628a-3c17-45b1-8f33-d8c4223575ad&inline=true,35.946339,-85.032003,35,2021-03-08T19:13:10.000Z,ina.maxwell@tneducation.net,2020-08-05T00:00:00.000Z,False,,4,Upper Cumberland CORE Region,Janice Fox,(931) 544-7079,38501,0,0,0,0
190,Davidson County,2601 Bransford Ave,,Nashville,37204,6152594636,https://www.mnps.org/,https://eplan.tn.gov/DocumentLibrary/ViewDocument.aspx?DocumentGuid=c5c2ccf6-5a3d-4078-8c8a-4aeedfb71528&inline=true,36.121734,-86.765682,36,2021-03-08T16:36:47.000Z,adrienne.battle@tneducation.net,2020-08-04T00:00:00.000Z,False,,3,Mid Cumberland CORE Region,Christie Southerland,(615) 532-3270,37210,42,28,43,20
721,Dayton,520  Cherry  St,,Dayton,37321,4237758414,https://www.daytoncity.net/,https://eplan.tn.gov/DocumentLibrary/ViewDocument.aspx?DocumentGuid=b8270fdb-7e90-4e7a-91e6-1e6352b74f18&inline=true,35.487134,-85.017965,106,2020-08-01T00:00:00.000Z,district.technology@tn.gov,2020-08-05T00:00:00.000Z,False,,7,Southeast Tennessee CORE Region,Sharon Harper,(423) 260-1168,37406,0,1,1,1
200,Decatur County,59 West Main St,,Decaturville,38329,7318522391,https://sites.google.com/view/decaturcountyschools-org/home,https://eplan.tn.gov/DocumentLibrary/ViewDocument.aspx?DocumentGuid=c1187b40-ea8e-4745-802a-b6a24f5ec366&inline=true,35.583851,-88.12078,37,2021-03-08T16:02:50.000Z,christopher.villaflor@tneducation.net,2020-08-04T00:00:00.000Z,False,,9,Southwest CORE Region,Audrey Johnson,(901) 484-3389,38301,0,0,0,0
210,DeKalb County,110 South Public Square ,,Smithville,37166,6155974084,https://www.dekalbschools.net/,https://eplan.tn.gov/DocumentLibrary/ViewDocument.aspx?DocumentGuid=062730ad-4537-4fe7-a213-2a4cb7c5506a&inline=true,35.96051,-85.81331,38,2021-03-08T20:24:38.000Z,elise.driver@tneducation.net,2020-08-20T00:00:00.000Z,False,,4,Upper Cumberland CORE Region,Janice Fox,(931) 544-7079,38501,2,0,0,0
220,Dickson County,817  N  Charlotte St,,Dickson,37055,6154467571,http://www.dcstn.org/,https://eplan.tn.gov/DocumentLibrary/ViewDocument.aspx?DocumentGuid=335ebe5f-0884-4946-9d69-aa9d94dccb0b&inline=true,36.086727,-87.38071,39,2021-03-01T14:15:36.000Z,danny.weeks@tneducation.net,2020-08-03T00:00:00.000Z,False,,3,Mid Cumberland CORE Region,Christie Southerland,(615) 532-3270,37210,3,3,11,8
230,Dyer County,159  Everett  Ave,,Dyersburg,38024,7312856712,https://dchs.dyercs.net/o/dyer-county-schools,https://eplan.tn.gov/DocumentLibrary/ViewDocument.aspx?DocumentGuid=6b1f8939-7217-4b1b-8c94-f6fbca4b0217&inline=true,36.029106,-89.361605,40,2021-03-01T18:42:54.000Z,cheryl.mathis@tneducation.net,2020-08-03T00:00:00.000Z,False,,1,Northwest Tennessee CORE Region,Pennye Thurmond,(731) 881-7565,38229,1,0,0,0
231,Dyersburg,509 Lake Rd,,Dyersburg,38024,7312863600,https://www.dyersburgcityschools.org/,https://eplan.tn.gov/DocumentLibrary/ViewDocument.aspx?DocumentGuid=bb9555fd-e702-48e4-b768-6249bc803534&inline=true,36.037082,-89.393829,41,2020-11-09T14:45:47.000Z,kim.worley@tneducation.net,2020-08-03T00:00:00.000Z,False,,1,Northwest Tennessee CORE Region,Pennye Thurmond,(731) 881-7565,38229,0,0,0,0
101,Elizabethton,804 S  Watauga Ave,,Elizabethton,37643,4235478000,https://www.ecschools.net/,https://eplan.tn.gov/DocumentLibrary/ViewDocument.aspx?DocumentGuid=609b672e-6f8d-4aa4-beb5-4f11dad8bb88&inline=true,36.336131,-82.220879,22,2021-03-08T21:19:42.000Z,nicole.moore@tneducation.net,2020-08-05T00:00:00.000Z,False,,6,First Tennessee CORE Region,Dr. Greg Sturgill,(423) 357-3641,37642,0,0,5,0
542,Etowah,858  8th  St,,Etowah,37331,4232635483,http://www.etowahcityschool.com/,https://eplan.tn.gov/DocumentLibrary/ViewDocument.aspx?DocumentGuid=9794a73a-70f4-4b52-949b-caf4045dc235&inline=true,35.327073,-84.534888,84,2020-12-14T18:17:09.000Z,karla.gaskins@tneducation.net,2020-08-10T00:00:00.000Z,False,,7,Southeast Tennessee CORE Region,Sharon Harper,(423) 260-1168,37406,,,,
240,Fayette County Public Schools,10425 Hwy 76 S Hwy,,Somerville,38068,9014655260,https://www.fcsk12.net/,https://eplan.tn.gov/DocumentLibrary/ViewDocument.aspx?DocumentGuid=28fe1a12-1ef1-4693-ac56-626edaf74b8b&inline=true,35.207618,-89.354255,42,2021-02-16T17:41:10.000Z,diane.watkins@tneducation.net,2020-08-10T00:00:00.000Z,False,,9,Southwest CORE Region,Audrey Johnson,(901) 484-3389,38301,1,0,,
521,Fayetteville,110 Elk Avenue South ,Suite 200,Fayetteville,37334,9314335542,https://www.fcsboe.org/,https://eplan.tn.gov/DocumentLibrary/ViewDocument.aspx?DocumentGuid=943a1057-067a-40c3-8b60-974a756e401a&inline=true,35.151243,-86.569226,79,2020-09-25T15:02:33.000Z,billy.hopkins@tneducation.net,2020-08-03T00:00:00.000Z,False,,8,South Central CORE Region,Bill Byford,(931) 488-3050,37160,,,0,0
250,Fentress County,1011 Old Hwy 127 ,,Jamestown,38556,9318799218,https://www.fentressboe.com/,https://eplan.tn.gov/DocumentLibrary/ViewDocument.aspx?DocumentGuid=7fa014ad-db62-4f01-bf24-dcc2f8f2cb8d&inline=true,36.405888,-84.936178,43,2020-11-30T18:26:37.000Z,gina.buckner@tneducation.net,2020-08-03T00:00:00.000Z,False,,4,Upper Cumberland CORE Region,Janice Fox,(931) 544-7079,38501,0,0,0,0
260,Franklin County,215 South College St,,Winchester,37398,9319670626,https://www.fcstn.net/,https://eplan.tn.gov/DocumentLibrary/ViewDocument.aspx?DocumentGuid=6b16b628-eb04-40d2-bc08-44b1552e3764&inline=true,35.185414,-86.109778,44,2020-12-19T15:11:59.000Z,bonita.nolan@tneducation.net,2020-08-05T00:00:00.000Z,False,,8,South Central CORE Region,Bill Byford,(931) 488-3050,37160,2,0,4,3
941,Franklin SSD,507  Highway  96 West ,,Franklin,37064,6157946624,www.fssd.org/,https://eplan.tn.gov/DocumentLibrary/ViewDocument.aspx?DocumentGuid=818e7681-6b65-4767-95ed-7b7ab4d7149d&inline=true,35.923933,-86.880013,140,2020-12-21T14:44:02.000Z,david.esslinger@tneducation.net,2020-08-24T00:00:00.000Z,False,,3,Mid Cumberland CORE Region,Christie Southerland,(615) 532-3270,37210,7,1,1,1
796,Germantown,6685 Poplar Ave,Suite 202,Germantown,38138,9017527900,https://www.gmsdk12.org/,https://eplan.tn.gov/DocumentLibrary/ViewDocument.aspx?DocumentGuid=5bdb122e-d1bb-4e85-b214-d0c06f7acbd4&inline=true,35.096659,-89.840949,119,2020-08-05T00:00:00.000Z,district.technology@tn.gov,2020-08-17T00:00:00.000Z,False,,9,Southwest CORE Region,Audrey Johnson,(901) 484-3389,38301,0,0,0,0
275,Gibson Co Sp Dist,130 Hwy  45 W Box 60 ,,Dyer,38330,7316923803,https://www.gcssd.org/,https://eplan.tn.gov/DocumentLibrary/ViewDocument.aspx?DocumentGuid=251a059c-3731-41a5-bc9a-2a77f8f97654&inline=true,36.026719,-88.967819,49,2021-01-25T15:31:26.000Z,eddie.pruett@tneducation.net,2020-08-03T00:00:00.000Z,False,,1,Northwest Tennessee CORE Region,Pennye Thurmond,(731) 881-7565,38229,0,0,0,0
280,Giles County,270  Richland  Dr,,Pulaski,38478,9313634558,https://www.gcboe.us/,https://eplan.tn.gov/DocumentLibrary/ViewDocument.aspx?DocumentGuid=9f27c0fb-db8b-494e-b40d-0cd2abfbb8a4&inline=true,35.214621,-87.107338,50,2020-09-14T15:02:48.000Z,vickie.beard@tneducation.net,2020-08-03T00:00:00.000Z,False,,8,South Central CORE Region,Bill Byford,(931) 488-3050,37160,3,1,7,4
290,Grainger County,7850 Rutledge Pike,,Rutledge,37861,8658283611,http://www.grainger.k12.tn.us/,,36.2801,-83.520573,51,2020-12-07T20:16:32.000Z,staci.gray@tneducation.net,2020-08-17T00:00:00.000Z,False,,5,East Tennessee CORE Region,Ginger Leach,(865) 594-9445,37920,,,,
300,Greene County,910 Summer St,,Greeneville,37743,4236394194,https://www.greenek12.org/,https://eplan.tn.gov/DocumentLibrary/ViewDocument.aspx?DocumentGuid=5f8a0ae2-7130-438f-bdcb-e14646ca276d&inline=true,36.167262,-82.847243,52,2021-02-08T21:53:08.000Z,valerie.walters@tneducation.net,2020-08-05T00:00:00.000Z,True,,6,First Tennessee CORE Region,Dr. Greg Sturgill,(423) 357-3641,37642,0,0,0,0
301,Greeneville,129 West Depot St,,Greeneville,37743,4237878000,https://www2.gcschools.net/,https://eplan.tn.gov/DocumentLibrary/ViewDocument.aspx?DocumentGuid=f1083f95-7905-4c22-85f9-2ea5adf06bcf&inline=true,36.163533,-82.832776,53,2021-02-22T22:23:28.000Z,steve.starnes@tneducation.net,2020-08-24T00:00:00.000Z,False,,6,First Tennessee CORE Region,Dr. Greg Sturgill,(423) 357-3641,37642,1,0,3,0
310,Grundy County,1376 Main St,,Altamont,37301,9316923467,http://www.grundycoschools.com/,https://eplan.tn.gov/DocumentLibrary/ViewDocument.aspx?DocumentGuid=7e0f7135-c8de-4a9b-a624-bd3ec9500f91&inline=true,35.426764,-85.721822,54,2021-03-08T15:32:31.000Z,donald.c.durley@tneducation.net,2020-08-07T00:00:00.000Z,False,,7,Southeast Tennessee CORE Region,Sharon Harper,(423) 260-1168,37406,0,0,6,0
320,Hamblen County,210 East  Morris Blvd,,Morristown,37813,4235867700,https://www.hcboe.net/,https://eplan.tn.gov/DocumentLibrary/ViewDocument.aspx?DocumentGuid=013d95bb-334a-4a06-baa5-2fa441a67253&inline=true,36.212256,-83.289177,55,2020-08-10T00:00:00.000Z,district.technology@tn.gov,2020-09-08T00:00:00.000Z,False,,6,First Tennessee CORE Region,Dr. Greg Sturgill,(423) 357-3641,37642,9,3,4,2
330,Hamilton County,3074 Hickory Valley Rd,,Chattanooga,37421,4234987020,https://www.hcde.org/,https://eplan.tn.gov/DocumentLibrary/ViewDocument.aspx?DocumentGuid=692d513d-bfa1-4969-af5b-0122b196069e&inline=true,35.073342,-85.154234,56,2020-08-01T00:00:00.000Z,district.technology@tn.gov,2020-08-06T00:00:00.000Z,False,,7,Southeast Tennessee CORE Region,Sharon Harper,(423) 260-1168,37406,,,,
340,Hancock County,418 Harrison St,,Sneedville,37869,4237332591,https://hancockcountyschools.com/,https://eplan.tn.gov/DocumentLibrary/ViewDocument.aspx?DocumentGuid=5dd18351-ba55-4b61-9c30-0e20cf303dc9&inline=true,36.523407,-83.216164,57,2020-11-02T15:33:10.000Z,charlotte.mullins@tneducation.net,2020-08-03T00:00:00.000Z,False,,6,First Tennessee CORE Region,Dr. Greg Sturgill,(423) 357-3641,37642,0,0,0,0
350,Hardeman County Schools,10815 Old Hwy. 64 ,,Bolivar,38008,7316582510,https://www.hcsedu.org/,https://eplan.tn.gov/DocumentLibrary/ViewDocument.aspx?DocumentGuid=73c84607-d23e-48da-9b08-b663810b9aaf&inline=true,35.277072,-89.02168,58,2021-01-25T21:54:53.000Z,lisa.raines@tneducation.net,2020-08-07T00:00:00.000Z,False,,9,Southwest CORE Region,Audrey Johnson,(901) 484-3389,38301,,,,
360,Hardin County,155 Guinn St,,Savannah,38372,7319253943,https://hardincoschools.com/,https://eplan.tn.gov/DocumentLibrary/ViewDocument.aspx?DocumentGuid=22fda6e7-0266-47fd-8d57-4fe445d673ac&inline=true,35.224229,-88.249314,59,2021-03-01T21:47:25.000Z,edith.barlow@tneducation.net,2020-08-03T00:00:00.000Z,False,,9,Southwest CORE Region,Audrey Johnson,(901) 484-3389,38301,,,0,0
370,Hawkins County,1050 Volunteer Blvd,,Church Hill,37624,4233573641,https://www.hck12.net/,https://eplan.tn.gov/DocumentLibrary/ViewDocument.aspx?DocumentGuid=d1d04641-4418-4c4d-a3f7-90d77e235007&inline=true,36.510096,-82.780444,60,2021-01-11T19:05:49.000Z,becky.little65@tneducation.net,2020-08-04T00:00:00.000Z,False,,6,First Tennessee CORE Region,Dr. Greg Sturgill,(423) 357-3641,37642,,,6,0
380,Haywood County,900 East Main St,,Brownsville,38012,7317729613,https://haywoodschools.com/,https://eplan.tn.gov/DocumentLibrary/ViewDocument.aspx?DocumentGuid=a6e0da1f-4ceb-452b-a392-f29150aa9777&inline=true,35.593416,-89.252389,62,2020-10-19T20:27:27.000Z,joey.hassell5379@tneducation.net,2020-08-17T00:00:00.000Z,False,,9,Southwest CORE Region,Audrey Johnson,(901) 484-3389,38301,0,0,0,0
390,Henderson County,35 East Wilson St,,Lexington,38351,7319683661,http://www.hcschoolstn.org/,https://eplan.tn.gov/DocumentLibrary/ViewDocument.aspx?DocumentGuid=56724e97-c525-482a-927a-b4e3b4bf5ec1&inline=true,35.651553,-88.393056,63,2021-03-08T17:28:20.000Z,gennifer.leslie@tneducation.net,2020-08-03T00:00:00.000Z,False,,9,Southwest CORE Region,Audrey Johnson,(901) 484-3389,38301,1,0,3,3
400,Henry County,217  Grove  Blvd,,Paris,38242,7316429733,https://www.henryk12.net/,https://eplan.tn.gov/DocumentLibrary/ViewDocument.aspx?DocumentGuid=2a308668-c334-4e8e-bd50-59e62c26be67&inline=true,36.292679,-88.326968,65,2021-02-05T20:41:02.000Z,leah.r.watkins@tneducation.net,2020-08-24T00:00:00.000Z,False,,1,Northwest Tennessee CORE Region,Pennye Thurmond,(731) 881-7565,38229,,,0,0
410,Hickman County,115  Murphree  Ave,,Centerville,37033,9317293391,https://hickmank12.org/,https://eplan.tn.gov/DocumentLibrary/ViewDocument.aspx?DocumentGuid=83ecd50e-fc27-4217-be3c-20850ed2f535&inline=true,35.778826,-87.464039,67,2021-03-08T19:31:59.000Z,michelle.gilbert@tneducation.net,2020-08-03T00:00:00.000Z,False,,8,South Central CORE Region,Bill Byford,(931) 488-3050,37160,3,0,0,2
92,Hollow Rock - Bruceton,29590 Broad St,,Bruceton,38317,7314184180,http://www.hrbedu.org/,https://eplan.tn.gov/DocumentLibrary/ViewDocument.aspx?DocumentGuid=78cbbe70-ff3b-4cf0-a6db-497e7704a0ba&inline=true,36.034886,-88.2625,16,2020-10-05T18:03:38.000Z,david.duncan8514@tneducation.net,2020-08-04T00:00:00.000Z,False,,1,Northwest Tennessee CORE Region,Pennye Thurmond,(731) 881-7565,38229,,,0,0
420,Houston County,6460 Hwy 13 South ,,Erin,37061,9312894148,https://www.houston.k12.tn.us/,https://eplan.tn.gov/DocumentLibrary/ViewDocument.aspx?DocumentGuid=008bc0f1-4288-4ae3-9b9e-1f01c42fd25a&inline=true,36.314178,-87.675859,68,2020-10-19T19:10:52.000Z,kris.mcaskill@tneducation.net,2020-08-17T00:00:00.000Z,False,,3,Mid Cumberland CORE Region,Christie Southerland,(615) 532-3270,37210,0,0,0,0
271,Humboldt City Schools,2602 Viking Dr,,Humboldt,38343,7317842652,https://www.hcsvikings.org/,https://eplan.tn.gov/DocumentLibrary/ViewDocument.aspx?DocumentGuid=6b901279-1d56-4910-a142-90f29a85a45d&inline=true,35.841583,-88.907848,45,2021-03-01T20:48:52.000Z,lillian.shelton@tneducation.net,2020-08-10T00:00:00.000Z,False,,1,Northwest Tennessee CORE Region,Pennye Thurmond,(731) 881-7565,38229,0,0,0,0
430,Humphreys County,2443 Hwy  70 E ,,Waverly,37185,9312962568,https://www.hcss.org/,https://eplan.tn.gov/DocumentLibrary/ViewDocument.aspx?DocumentGuid=cd0f2080-b3d8-4735-bb35-a09b0d6b0500&inline=true,36.085199,-87.752477,69,2020-08-05T00:00:00.000Z,district.technology@tn.gov,2020-08-03T00:00:00.000Z,False,,3,Mid Cumberland CORE Region,Christie Southerland,(615) 532-3270,37210,2,0,,
93,Huntingdon Special School District,585 High St,,Huntingdon,38344,7319862222,https://www.huntingdonschools.net/,https://eplan.tn.gov/DocumentLibrary/ViewDocument.aspx?DocumentGuid=9228e0c4-8fc2-4fca-9fbf-03a24b39a7a0&inline=true,36.021029,-88.409745,17,2021-02-22T15:35:01.000Z,patricia.dillahunty@tneducation.net,2020-08-17T00:00:00.000Z,False,,1,Northwest Tennessee CORE Region,Pennye Thurmond,(731) 881-7565,38229,0,0,0,0
440,Jackson County,711 School Dr,,Gainesboro,38562,9312680119,https://www.jacksoncoschools.com/,https://eplan.tn.gov/DocumentLibrary/ViewDocument.aspx?DocumentGuid=6d9d7fcb-d0fd-40ee-a0ed-549f018838a1&inline=true,36.348781,-85.657495,70,2020-11-16T19:17:58.000Z,jennifer.scott85@tneducation.net,2020-08-04T00:00:00.000Z,False,,4,Upper Cumberland CORE Region,Janice Fox,(931) 544-7079,38501,,,0,0
450,Jefferson County,1221 Gay St,,Dandridge,37725,8653973194,https://www.jc-tn.net/,https://eplan.tn.gov/DocumentLibrary/ViewDocument.aspx?DocumentGuid=94a7d54a-f71c-4217-89a9-de18d4fd728d&inline=true,36.015654,-83.415691,71,2021-03-08T11:26:09.000Z,edward.johnston@tneducation.net,2020-08-07T00:00:00.000Z,False,,5,East Tennessee CORE Region,Ginger Leach,(865) 594-9445,37920,22,2,16,1
901,Johnson City,100 E. Maple ,,Johnson City,37605,4234345200,www.jcschools.org,https://eplan.tn.gov/DocumentLibrary/ViewDocument.aspx?DocumentGuid=859cd5ff-5764-47fb-a396-7d68fb5858f8&inline=true,36.314214,-82.347418,135,2021-03-01T21:44:18.000Z,jennifer.norton49@tneducation.net,2020-08-04T00:00:00.000Z,False,,6,First Tennessee CORE Region,Dr. Greg Sturgill,(423) 357-3641,37642,,,0,0
460,Johnson County,211 N  Church St,,Mountain City,37683,4237272640,https://www.jocoed.net/,https://eplan.tn.gov/DocumentLibrary/ViewDocument.aspx?DocumentGuid=ece712e5-5c29-4ab9-bb2a-c23ca3a3fc1d&inline=true,36.476129,-81.803629,72,2020-10-19T14:17:33.000Z,mischelle.simcox@tneducation.net,2020-08-17T00:00:00.000Z,True,,6,First Tennessee CORE Region,Dr. Greg Sturgill,(423) 357-3641,37642,0,0,4,1
822,Kingsport,400 Clinchfield St,Suite 200,Kingsport,37660,4233782100,www.k12k.com,https://eplan.tn.gov/DocumentLibrary/ViewDocument.aspx?DocumentGuid=45d25def-4ef5-48e7-809a-30cd621d879a&inline=true,36.552304,-82.564094,126,2021-02-09T17:34:21.000Z,vijay.gollapudi@tnedu.gov,2020-08-03T00:00:00.000Z,False,,6,First Tennessee CORE Region,Dr. Greg Sturgill,(423) 357-3641,37642,0,0,,
470,Knox County,912 South  Gay St,,Knoxville,37902,8655941620,https://www.knoxschools.org/,https://eplan.tn.gov/DocumentLibrary/ViewDocument.aspx?DocumentGuid=956765e1-9322-4731-8acc-ef619e4a4f90&inline=true,35.961756,-83.916043,73,2020-09-14T18:19:33.000Z,carly.harrington@tneducation.net,2020-08-24T00:00:00.000Z,False,,5,East Tennessee CORE Region,Ginger Leach,(865) 594-9445,37920,55,18,55,17
480,Lake County,819 McBride ,,Tiptonville,38079,7312536601,http://www.lcfalcons.net/,https://eplan.tn.gov/DocumentLibrary/ViewDocument.aspx?DocumentGuid=b10ba8d8-3a4e-4bce-861b-f6c187c4e945&inline=true,36.38172,-89.472988,74,2020-11-09T21:13:43.000Z,sherry.darnell@tneducation.net,2020-08-10T00:00:00.000Z,False,,1,Northwest Tennessee CORE Region,Pennye Thurmond,(731) 881-7565,38229,0,0,0,0
797,Lakeland,10001 Hwy 70 ,,Lakeland,38002,9018675412,https://lakelandk12.org/,https://eplan.tn.gov/DocumentLibrary/ViewDocument.aspx?DocumentGuid=9cb0f7d3-c78b-41ad-b861-c909b6e28501&inline=true,35.262035,-89.729672,120,2020-09-04T20:38:31.000Z,district.technology@tn.gov,2020-08-10T00:00:00.000Z,False,,9,Southwest CORE Region,Audrey Johnson,(901) 484-3389,38301,0,0,8,0
490,Lauderdale County,321 Armory Ave,,Ripley,38063,7316352941,https://www.lced.net/,https://eplan.tn.gov/DocumentLibrary/ViewDocument.aspx?DocumentGuid=b322c49c-6e2e-4b00-869d-9e648b5f037b&inline=true,35.754505,-89.66112,75,2021-03-08T16:59:53.000Z,shawn.kimble@tneducation.net,2020-08-13T00:00:00.000Z,False,,9,Southwest CORE Region,Audrey Johnson,(901) 484-3389,38301,2,0,0,0
500,Lawrence County,700 Mahr Ave,,Lawrenceburg,38464,9317623581,https://www.lcss.us/,https://eplan.tn.gov/DocumentLibrary/ViewDocument.aspx?DocumentGuid=d0d84f3b-2ef5-448e-9864-3b63e64247f0&inline=true,35.249295,-87.334463,76,2021-01-15T21:36:49.000Z,jennifer.golden19@tneducation.net,2020-08-10T00:00:00.000Z,False,,8,South Central CORE Region,Bill Byford,(931) 488-3050,37160,3,0,4,0
951,Lebanon,397 North Castle Heights Ave,,Lebanon,37087,6154496060,http://www.lssd.org,https://eplan.tn.gov/DocumentLibrary/ViewDocument.aspx?DocumentGuid=e8e372c8-78e2-4d8a-8429-c4d8ecc52492&inline=true,36.214091,-86.303963,142,2021-03-08T22:20:01.000Z,ronald.benson@tneducation.net,2020-08-03T00:00:00.000Z,False,,3,Mid Cumberland CORE Region,Christie Southerland,(615) 532-3270,37210,11,3,3,1
531,Lenoir City,200 East Broadway ,,Lenoir City,37771,8659868058,https://www.lenoircityschools.com/,https://eplan.tn.gov/DocumentLibrary/ViewDocument.aspx?DocumentGuid=b40429de-0abd-4244-bcef-0cd2dc01ea3d&inline=true,35.79183,-84.264021,81,2021-03-08T18:45:42.000Z,dominique.davis94@tnedu.gov,2020-08-03T00:00:00.000Z,False,,5,East Tennessee CORE Region,Ginger Leach,(865) 594-9445,37920,0,0,0,0
510,Lewis County,206  S  Court St,,Hohenwald,38462,9317963264,http://www.lewisk12.org/,https://eplan.tn.gov/DocumentLibrary/ViewDocument.aspx?DocumentGuid=aed94c9c-a4f6-48bb-a49c-cf1c575748a5&inline=true,35.545733,-87.554106,77,2020-10-12T14:50:30.000Z,sasha.powers@tneducation.net,2020-08-04T00:00:00.000Z,False,,8,South Central CORE Region,Bill Byford,(931) 488-3050,37160,0,0,4,0
391,Lexington,99 Monroe Ave,,Lexington,38351,7319675591,http://www.caywood.org/LCSS/index.php/en/,https://eplan.tn.gov/DocumentLibrary/ViewDocument.aspx?DocumentGuid=6ecde0b6-dd80-48e4-b3f0-33fdaca26e6f&inline=true,35.648066,-88.394789,64,2021-02-01T16:10:49.000Z,cynthia.olive@tneducation.net,2020-08-03T00:00:00.000Z,False,,9,Southwest CORE Region,Audrey Johnson,(901) 484-3389,38301,0,0,0,0
520,Lincoln County,909 Main Avenue South Ave,,Fayetteville,37334,9314333565,https://www.lcdoe.org/,https://eplan.tn.gov/DocumentLibrary/ViewDocument.aspx?DocumentGuid=11204bfa-53ed-4fec-bc5b-cb6fb9e96425&inline=true,35.143126,-86.572002,78,2021-03-08T15:57:24.000Z,billy.heath@tneducation.net,2020-08-03T00:00:00.000Z,False,,8,South Central CORE Region,Bill Byford,(931) 488-3050,37160,0,0,0,0
530,Loudon County,100  River  Rd,,Loudon,37774,8654585411,https://www.loudoncounty.org/,https://loudoncountyschools-my.sharepoint.com/:f:/g/personal/duttonb_loudoncounty_org/En_05GbysbdBgHico40TqmwBMUqAcKNgqCVUjECcatbPhA?e=O5Yvpi,35.740197,-84.343875,80,2021-03-08T16:56:38.000Z,dominique.davis94@tnedu.gov,2020-08-04T00:00:00.000Z,False,,5,East Tennessee CORE Region,Ginger Leach,(865) 594-9445,37920,0,0,0,0
560,Macon County,501  College  St,,Lafayette,37083,6156662125,https://www.maconcountyschools.com/,https://eplan.tn.gov/DocumentLibrary/ViewDocument.aspx?DocumentGuid=d7e6bf9c-71eb-4f2c-b1eb-a58636b7e457&inline=true,36.519677,-86.033073,86,2020-11-09T21:15:36.000Z,anthony.boles@tneducation.net,2020-08-24T00:00:00.000Z,False,,4,Upper Cumberland CORE Region,Janice Fox,(931) 544-7079,38501,,,,
570,Madison County,310  North  Pkwy,,Jackson,38305,7316642500,https://www.jmcss.org/,https://eplan.tn.gov/DocumentLibrary/ViewDocument.aspx?DocumentGuid=6c5d4d2d-1ccf-49fe-8e5b-186ecf77c4e6&inline=true,35.645451,-88.85312,87,2021-03-08T16:48:00.000Z,annette.wilson@tneducation.net,2020-08-24T00:00:00.000Z,False,,9,Southwest CORE Region,Audrey Johnson,(901) 484-3389,38301,0,0,0,0
161,Manchester,215  East  Fort St,,Manchester,37355,9317282316,https://www.manchestercitysch.org/,https://eplan.tn.gov/DocumentLibrary/ViewDocument.aspx?DocumentGuid=168e7e63-8071-4f98-9bff-a8bccef322e4&inline=true,35.483743,-86.085133,30,2021-02-22T16:07:04.000Z,joey.vaughn2132@tneducation.net,2020-08-03T00:00:00.000Z,False,,8,South Central CORE Region,Bill Byford,(931) 488-3050,37160,0,0,0,0
580,Marion County,204  Betsy  Pack Dr,,Jasper,37347,4239423434,https://www.marionschools.org/,https://eplan.tn.gov/DocumentLibrary/ViewDocument.aspx?DocumentGuid=6c4561ea-d0e3-420a-9009-b3e805026482&inline=true,35.075886,-85.625438,88,2020-09-21T16:27:14.000Z,mark.griffith@tneducation.net,2020-08-04T00:00:00.000Z,False,,7,Southeast Tennessee CORE Region,Sharon Harper,(423) 260-1168,37406,,,,
590,Marshall County,700  Jones  Cir,,Lewisburg,37091,9313591581,https://www.mcstn.net/,https://eplan.tn.gov/DocumentLibrary/ViewDocument.aspx?DocumentGuid=39c0a637-0177-427e-b899-f2659e9b73e9&inline=true,35.4574,-86.783847,90,2020-10-19T20:27:02.000Z,veronica.davenport@tneducation.net,2020-08-03T00:00:00.000Z,False,,8,South Central CORE Region,Bill Byford,(931) 488-3050,37160,,,0,0
52,Maryville,833  Lawrence  Ave,,Maryville,37803,8659827121,https://www.maryville-schools.org/,https://eplan.tn.gov/DocumentLibrary/ViewDocument.aspx?DocumentGuid=42a6aef8-4e8d-4de7-9cc8-4421cf153966&inline=true,35.747372,-83.978544,10,2021-03-08T11:21:52.000Z,mike.winstead@tneducation.net,2020-07-24T00:00:00.000Z,False,,5,East Tennessee CORE Region,Ginger Leach,(865) 594-9445,37920,0,0,0,0
600,Maury County,501 West 8th St,,Columbia,38401,9313888403,https://www.mauryk12.org/,https://eplan.tn.gov/DocumentLibrary/ViewDocument.aspx?DocumentGuid=a3f09e83-366a-402d-aa58-878d09116e00&inline=true,35.614069,-87.042168,91,2020-09-08T15:37:12.000Z,district.technology@tn.gov,2020-08-10T00:00:00.000Z,False,,8,South Central CORE Region,Bill Byford,(931) 488-3050,37160,4,4,7,4
94,McKenzie,114  W  Bell Ave,,McKenzie,38201,7313522246,http://www.mckenzieschools.org/,https://eplan.tn.gov/DocumentLibrary/ViewDocument.aspx?DocumentGuid=7659172c-1ded-47c9-aa4d-7b8e2dc4db7f&inline=true,36.14149,-88.521635,18,2020-09-14T14:02:27.000Z,kenneth.watkins@tneducation.net,2020-08-04T00:00:00.000Z,False,,1,Northwest Tennessee CORE Region,Pennye Thurmond,(731) 881-7565,38229,,,,
540,McMinn County,3 South Hill St,,Athens,37303,4239422110,http://www.mcminn.k12.tn.us/,https://eplan.tn.gov/DocumentLibrary/ViewDocument.aspx?DocumentGuid=719122a7-77b2-4bef-8bbd-1c590996c60a&inline=true,35.441027,-84.595125,82,2020-09-14T20:03:45.000Z,shelby.roberts@tneducation.net,2020-08-03T00:00:00.000Z,False,,7,Southeast Tennessee CORE Region,Sharon Harper,(423) 260-1168,37406,4,0,5,0
550,McNairy County,530 Mulberry Ave,Suite 2,Selmer,38375,7316453267,http://www.mcnairycountyschools.com/,https://eplan.tn.gov/DocumentLibrary/ViewDocument.aspx?DocumentGuid=5c85ce72-cf5d-48ba-ae2f-9b8b97e919d3&inline=true,35.159445,-88.58059,85,2020-08-05T00:00:00.000Z,district.technology@tn.gov,2020-08-10T00:00:00.000Z,False,,9,Southwest CORE Region,Audrey Johnson,(901) 484-3389,38301,0,1,1,1
610,Meigs County,345 North Main Street ,,Decatur,37322,4233345793,https://www.meigsgschool.net/,https://eplan.tn.gov/DocumentLibrary/ViewDocument.aspx?DocumentGuid=87b5767c-1914-44ef-9bd7-1daedaa6922f&inline=true,35.516574,-84.789474,92,2021-03-08T19:52:59.000Z,james.boshears26@tneducation.net,2020-08-07T00:00:00.000Z,False,,7,Southeast Tennessee CORE Region,Sharon Harper,(423) 260-1168,37406,5,1,4,1
272,Milan,1165 South Main St,,Milan,38358,7316860844,https://www.milanssd.org/,https://eplan.tn.gov/DocumentLibrary/ViewDocument.aspx?DocumentGuid=8a71c383-4a49-454b-9b82-d4c968ebb824&inline=true,35.919818,-88.759196,46,2021-02-22T14:23:56.000Z,jonathan.criswell@tneducation.net,2020-08-10T00:00:00.000Z,False,,1,Northwest Tennessee CORE Region,Pennye Thurmond,(731) 881-7565,38229,0,0,0,0
798,Millington Municipal Schools,5020 Second Ave,,Millington,38053,9018735680,www.millingtonschools.org,https://eplan.tn.gov/DocumentLibrary/ViewDocument.aspx?DocumentGuid=0120fea5-5cb1-4e82-a528-65fbf4a76dc3&inline=true,35.346991,-89.896061,121,2020-11-30T22:05:09.000Z,james.griffin@tneducation.net,2020-08-10T00:00:00.000Z,False,,9,Southwest CORE Region,Audrey Johnson,(901) 484-3389,38301,4,0,1,1
620,Monroe County,205  Oak  Grove Rd,,Madisonville,37354,4234422373,https://www.monroe.k12.tn.us/,https://eplan.tn.gov/DocumentLibrary/ViewDocument.aspx?DocumentGuid=6423aa7b-1f0b-4126-a0d5-c9fd8f748f6d&inline=true,35.533851,-84.360041,93,2021-02-11T03:45:24.000Z,jackie.gray@tneducation.net,2020-08-07T00:00:00.000Z,False,,5,East Tennessee CORE Region,Ginger Leach,(865) 594-9445,37920,3,3,13,2
630,Montgomery County,621  Gracey  Ave,,Clarksville,37040,9319207808,https://www.cmcss.net/,https://eplan.tn.gov/DocumentLibrary/ViewDocument.aspx?DocumentGuid=09253888-1f3a-49c8-8c35-c584481466f9&inline=true,36.520977,-87.345469,95,2021-03-01T11:10:36.000Z,kimmie.sucharski@tneducation.net,2020-08-31T00:00:00.000Z,False,,3,Mid Cumberland CORE Region,Christie Southerland,(615) 532-3270,37210,0,0,0,0
640,Moore County,241 Main St,,Lynchburg,37352,9317597303,https://www.moorecountyschools.net/,https://eplan.tn.gov/DocumentLibrary/ViewDocument.aspx?DocumentGuid=ac02f083-146b-4965-b76b-f176e8761b26&inline=true,35.281983,-86.373936,96,2020-09-08T15:58:56.000Z,district.technology@tn.gov,2020-08-03T00:00:00.000Z,False,,8,South Central CORE Region,Bill Byford,(931) 488-3050,37160,,,,
650,Morgan County,136 Flat Fork Rd,,Wartburg,37887,4233466214,https://www.mcsed.net/,https://eplan.tn.gov/DocumentLibrary/ViewDocument.aspx?DocumentGuid=345a8a9c-fd86-4807-9bd1-be41c8e7875f&inline=true,36.099632,-84.55334,97,2021-03-08T21:23:10.000Z,donna.pace@tneducation.net,2020-08-05T00:00:00.000Z,False,,5,East Tennessee CORE Region,Ginger Leach,(865) 594-9445,37920,6,0,0,0
751,Murfreesboro,2552  South  Church St,,Murfreesboro,37127,6158932313,http://www.cityschools.net/administration/director,https://eplan.tn.gov/DocumentLibrary/ViewDocument.aspx?DocumentGuid=fab81571-551b-4ab0-a68f-f96bbb78f692&inline=true,35.802849,-86.398819,110,2020-10-05T14:42:34.000Z,ralph.ringstaff@tneducation.net,2020-07-30T00:00:00.000Z,False,,3,Mid Cumberland CORE Region,Christie Southerland,(615) 532-3270,37210,0,0,0,0
151,Newport,301 College St,,Newport,37821,4236233811,http://newportcityschools.schoolinsites.com/,https://eplan.tn.gov/DocumentLibrary/ViewDocument.aspx?DocumentGuid=87fa3ed4-21ae-4562-92f3-5e0e98de4a0b&inline=true,35.963036,-83.186862,28,2021-02-23T13:11:45.000Z,janie.black@tneducation.net,2020-08-11T00:00:00.000Z,False,,6,First Tennessee CORE Region,Dr. Greg Sturgill,(423) 357-3641,37642,,,,
12,Oak Ridge,304 New York Ave,,Oak Ridge,37830,8654259001,https://www.ortn.edu/highschool/,https://eplan.tn.gov/DocumentLibrary/ViewDocument.aspx?DocumentGuid=bbfa7d98-0103-44b6-a1c0-537b5b5aadb6&inline=true,36.025153,-84.250895,4,2021-03-08T14:05:38.000Z,holly.cross@tneducation.net,2020-07-29T00:00:00.000Z,False,,5,East Tennessee CORE Region,Ginger Leach,(865) 594-9445,37920,0,0,0,0
660,Obion County,1700 North Fifth St,,Union City,38261,7318859743,https://www.obioncountyschools.com/,https://eplan.tn.gov/DocumentLibrary/ViewDocument.aspx?DocumentGuid=c6e19465-6b31-4025-ab88-a8dbd22a8bc6&inline=true,36.44235,-89.057499,98,2021-03-09T14:58:50.000Z,timothy.m.watkins@tneducation.net,2020-08-04T00:00:00.000Z,False,,1,Northwest Tennessee CORE Region,Pennye Thurmond,(731) 881-7565,38229,0,0,0,0
761,Oneida,195 North Bank ,,Oneida,37841,4235698912,www.oneidaschools.org/,https://eplan.tn.gov/DocumentLibrary/ViewDocument.aspx?DocumentGuid=7ee27375-6a32-4c8b-af21-fdf56a27a487&inline=true,36.504022,-84.510794,112,2020-10-19T16:14:04.000Z,jeanny.hatfield@tneducation.net,2020-08-04T00:00:00.000Z,False,,5,East Tennessee CORE Region,Ginger Leach,(865) 594-9445,37920,1,2,0,0
670,Overton County,302 Zachary St,,Livingston,38570,9318231287,https://www.oc-sd.com/,https://eplan.tn.gov/DocumentLibrary/ViewDocument.aspx?DocumentGuid=22a2dd62-e9b8-4ca7-9c73-38ad75770ebb&inline=true,36.38875,-85.31962,100,2021-02-04T17:25:24.000Z,jenny.smith5560@tneducation.net,2020-08-07T00:00:00.000Z,False,,4,Upper Cumberland CORE Region,Janice Fox,(931) 544-7079,38501,2,0,0,0
401,Paris,1219 Hwy 641 S ,,Paris,38242,7316429322,https://www.parisssd.org/,https://eplan.tn.gov/DocumentLibrary/ViewDocument.aspx?DocumentGuid=7cf0b4bc-a946-477e-bf87-5ccc3d304803&inline=true,36.282126,-88.29395,66,2020-11-30T21:49:25.000Z,norma.gerrell@tneducation.net,2020-08-03T00:00:00.000Z,False,,1,Northwest Tennessee CORE Region,Pennye Thurmond,(731) 881-7565,38229,,,0,0
680,Perry County,857 Squirrel Hollow Dr,,Linden,37096,9315892102,http://perrycountyschools.us/index.html,https://eplan.tn.gov/DocumentLibrary/ViewDocument.aspx?DocumentGuid=92a86989-86a0-46a5-b63e-6f41b02891ff&inline=true,35.608532,-87.83715,101,2020-09-11T14:39:42.000Z,eric.lomax@tneducation.net,2020-08-04T00:00:00.000Z,False,,8,South Central CORE Region,Bill Byford,(931) 488-3050,37160,0,0,0,0
690,Pickett County,141 Skyline Dr,,Byrdstown,38549,9318643123,https://www.pickettk12.net/,https://eplan.tn.gov/DocumentLibrary/ViewDocument.aspx?DocumentGuid=09659b4d-08db-4e20-9849-e9902b031cd7&inline=true,36.577523,-85.13407,102,2020-11-23T20:25:32.000Z,patricia.elder@tneducation.net,2020-07-31T00:00:00.000Z,False,,4,Upper Cumberland CORE Region,Janice Fox,(931) 544-7079,38501,,,0,0
700,Polk County,131 Stephens St,,Benton,37307,4232990471,https://www.polk-schools.com/,https://eplan.tn.gov/DocumentLibrary/ViewDocument.aspx?DocumentGuid=580cd1ba-0513-4e0e-8dd8-0494e4c249b4&inline=true,35.178904,-84.654566,103,2020-09-14T18:26:48.000Z,ryan.goodman4668@tneducation.net,2020-08-10T00:00:00.000Z,False,,7,Southeast Tennessee CORE Region,Sharon Harper,(423) 260-1168,37406,,,,
710,Putnam County,1400 East Spring St,,Cookeville,38506,9315269777,http://www.pcsstn.com/,https://eplan.tn.gov/DocumentLibrary/ViewDocument.aspx?DocumentGuid=d965bee7-031f-4e22-8b06-ff39b1c92135&inline=true,36.151884,-85.471444,104,2021-03-08T20:06:03.000Z,melanie.bussell@tneducation.net,2020-07-30T00:00:00.000Z,False,,4,Upper Cumberland CORE Region,Janice Fox,(931) 544-7079,38501,9,2,9,1
720,Rhea County,305  California  Ave,,Dayton,37321,4237757813,http://www.rheacounty.org/,https://eplan.tn.gov/DocumentLibrary/ViewDocument.aspx?DocumentGuid=5715e064-ef47-424c-9a5b-54d7294b29a6&inline=true,35.489092,-85.023174,105,2021-01-11T20:51:06.000Z,lori.derlak@tneducation.net,2020-08-05T00:00:00.000Z,False,,7,Southeast Tennessee CORE Region,Sharon Harper,(423) 260-1168,37406,,,2,0
581,Richard City,1620  Hamilton  Ave,,South Pittsburg,37380,4238377282,http://www.richardhardy.org/index.php,https://eplan.tn.gov/DocumentLibrary/ViewDocument.aspx?DocumentGuid=cc836023-2a3c-4dfa-92ec-57fe424a9a57&inline=true,34.994263,-85.72243,89,2020-08-01T00:00:00.000Z,district.technology@tn.gov,2020-08-11T00:00:00.000Z,False,,7,Southeast Tennessee CORE Region,Sharon Harper,(423) 260-1168,37406,,,,
730,Roane County,105  Bluff  Rd,,Kingston,37763,8653765592,https://www.roaneschools.com/,https://eplan.tn.gov/DocumentLibrary/ViewDocument.aspx?DocumentGuid=ede5beb8-8663-4ea2-893b-169ff5005540&inline=true,35.88902,-84.530591,107,2020-12-07T16:03:53.000Z,michael.barber@tneducation.net,2020-08-19T00:00:00.000Z,False,,5,East Tennessee CORE Region,Ginger Leach,(865) 594-9445,37920,4,2,3,1
740,Robertson County,800 M S Couts Blvd,,Springfield,37172,6153845588,https://www.rcstn.net/,https://eplan.tn.gov/DocumentLibrary/ViewDocument.aspx?DocumentGuid=54731247-63ce-4ccf-b7b5-e53521872396&inline=true,36.468132,-86.866403,108,2021-03-08T14:24:27.000Z,chris.causey@tneducation.net,2020-08-19T00:00:00.000Z,False,,3,Mid Cumberland CORE Region,Christie Southerland,(615) 532-3270,37210,7,8,11,4
371,Rogersville,116 Broadway ,,Rogersville,37857,4232727651,http://www.rcschool.net/,https://eplan.tn.gov/DocumentLibrary/ViewDocument.aspx?DocumentGuid=196799a8-6a12-482a-ba26-8139b5dcd242&inline=true,36.40412,-83.004359,61,2020-08-01T00:00:00.000Z,district.technology@tn.gov,2020-08-10T00:00:00.000Z,False,,6,First Tennessee CORE Region,Dr. Greg Sturgill,(423) 357-3641,37642,,,,
750,Rutherford County,2240 Southpark Blvd,,Murfreesboro,37128,6158935812,https://www.rcschools.net/,https://eplan.tn.gov/DocumentLibrary/ViewDocument.aspx?DocumentGuid=e1b8441c-0013-42ca-928a-62aaf6ee6b70&inline=true,35.81317,-86.402693,109,2021-03-01T20:00:49.000Z,william.spurlock@tneducation.net,2020-08-13T00:00:00.000Z,False,,3,Mid Cumberland CORE Region,Christie Southerland,(615) 532-3270,37210,50,8,109,19
760,Scott County,208 Court St,,Huntsville,37756,4236632159,http://scottcounty.net/schoolboard/director,https://eplan.tn.gov/DocumentLibrary/ViewDocument.aspx?DocumentGuid=1ad05f17-7f0c-489c-a33c-8621240cef6c&inline=true,36.409889,-84.490285,111,2021-01-25T20:06:21.000Z,dominique.davis94@tnedu.gov,2020-08-10T00:00:00.000Z,False,,5,East Tennessee CORE Region,Ginger Leach,(865) 594-9445,37920,3,2,1,3
770,Sequatchie County,878 Cordell Dr,,Dunlap,37327,4239493617,https://www.sequatchieschools.net/,https://eplan.tn.gov/DocumentLibrary/ViewDocument.aspx?DocumentGuid=c123ae12-af4d-4760-8a4e-dee1073e0f17&inline=true,35.356751,-85.401902,113,2021-02-01T18:32:19.000Z,rhonda.harmon@tneducation.net,2020-08-03T00:00:00.000Z,False,,7,Southeast Tennessee CORE Region,Sharon Harper,(423) 260-1168,37406,3,2,4,1
780,Sevier County,226  Cedar  St,,Sevierville,37862,8654534671,www.sevier.org/,https://eplan.tn.gov/DocumentLibrary/ViewDocument.aspx?DocumentGuid=a22e85f7-ce70-4b0c-8a80-02d3c644d067&inline=true,35.865861,-83.561873,114,2021-03-08T16:38:24.000Z,john.ogle@tneducation.net,2020-08-13T00:00:00.000Z,False,,5,East Tennessee CORE Region,Ginger Leach,(865) 594-9445,37920,0,0,0,0
792,Shelby County,160  S  Hollywood ,,Memphis,38112,9013212500,www.scsk12.org,https://eplan.tn.gov/DocumentLibrary/ViewDocument.aspx?DocumentGuid=13c729db-f6a3-4c1a-9729-6d1aeadb1e4a&inline=true,35.129654,-89.97564,115,2020-09-10T20:37:52.000Z,john.barker@tneducation.net,2020-08-31T00:00:00.000Z,False,,9,Southwest CORE Region,Audrey Johnson,(901) 484-3389,38301,1,3,0,5
800,Smith County,126 S C M S Lane ,,Carthage,37030,6157359625,http://boe.smithcounty.com/,https://eplan.tn.gov/DocumentLibrary/ViewDocument.aspx?DocumentGuid=81c23b9b-29e4-48fa-9329-2b6068ceddd1&inline=true,36.276278,-85.95174,122,2020-08-01T00:00:00.000Z,district.technology@tn.gov,2020-08-05T00:00:00.000Z,False,,4,Upper Cumberland CORE Region,Janice Fox,(931) 544-7079,38501,,,,
95,South Carroll,145 Clarksburg Rd,,Clarksburg,38324,7319863165,http://www.rocketsonline.org/,https://eplan.tn.gov/DocumentLibrary/ViewDocument.aspx?DocumentGuid=8cdd9632-3bb9-4df2-b717-fdd5491df3fc&inline=true,35.872041,-88.390043,19,2020-12-07T17:17:52.000Z,lex.suite8@tneducation.net,2020-08-04T00:00:00.000Z,False,,1,Northwest Tennessee CORE Region,Pennye Thurmond,(731) 881-7565,38229,,,,
810,Stewart County,1031 Spring St,,Dover,37058,9312325176,www.stewartcountyschools.net/,https://eplan.tn.gov/DocumentLibrary/ViewDocument.aspx?DocumentGuid=bcc86a52-8acc-4b21-b3b9-6bb5ff17e60e&inline=true,36.480059,-87.820565,123,2020-10-19T15:21:34.000Z,michael.craig@tneducation.net,2020-08-03T00:00:00.000Z,False,,3,Mid Cumberland CORE Region,Christie Southerland,(615) 532-3270,37210,0,2,0,0
820,Sullivan County,154 Blountville By-Pass ,,Blountville,37617,4233541000,www.scde.k12.tn.us,https://eplan.tn.gov/DocumentLibrary/ViewDocument.aspx?DocumentGuid=ea3ab166-8984-436c-9f2b-b9b005bfb70d&inline=true,36.535206,-82.325801,124,2021-02-22T16:19:33.000Z,nicole.wolfe4979@tneducation.net,2020-08-03T00:00:00.000Z,False,,6,First Tennessee CORE Region,Dr. Greg Sturgill,(423) 357-3641,37642,0,0,,
830,Sumner County,695 East Main St,,Gallatin,37066,6154515200,http://www.sumnerschools.org,https://eplan.tn.gov/DocumentLibrary/ViewDocument.aspx?DocumentGuid=de6b25d9-909c-49bb-ba11-1f8940eb3a9f&inline=true,36.393848,-86.432946,127,2021-03-08T14:15:49.000Z,robert.langford@tneducation.net,2020-08-03T00:00:00.000Z,False,,3,Mid Cumberland CORE Region,Christie Southerland,(615) 532-3270,37210,27,6,42,24
621,Sweetwater,220 S. Clark St,,Sweetwater,37874,4233377051,https://www.sweetwatercityschools.com/,https://eplan.tn.gov/DocumentLibrary/ViewDocument.aspx?DocumentGuid=9646791a-014f-49e4-8fb9-ce47acff4160&inline=true,35.598262,-84.469265,94,2020-11-09T21:48:09.000Z,william.boruff@tneducation.net,2020-08-07T00:00:00.000Z,False,,5,East Tennessee CORE Region,Ginger Leach,(865) 594-9445,37920,,,3,0
963,Tennessee School for Blind,115  Stewarts  Ferry Pike,,Nashville,37214,6153396284,http://www.tsbtigers.org,https://eplan.tn.gov/DocumentLibrary/ViewDocument.aspx?DocumentGuid=2b011ce6-c771-4177-9a3b-9fb9eeaea392&inline=true,36.173839,-86.644711,145,2021-03-08T16:27:56.000Z,david.martin3506@tneducation.net,2020-08-17T00:00:00.000Z,False,,3,Mid Cumberland CORE Region,Christie Southerland,(615) 532-3270,37210,0,0,1,3
964,Tennessee School for the Deaf,2725  Island  Home Blvd,,Knoxville,37920,8655792500,www.tsdeaf.org,https://eplan.tn.gov/DocumentLibrary/ViewDocument.aspx?DocumentGuid=9bd3894c-dc24-4baf-a62e-6839ec90fbc9&inline=true,35.959414,-83.880015,146,2020-12-10T19:45:30.000Z,vicki.l.kirk@tneducation.net,2020-08-17T00:00:00.000Z,False,,5,East Tennessee CORE Region,Ginger Leach,(865) 594-9445,37920,,,1,0
986,Tennessee State Board of Education,710 James Robertson Pkwy,1st Floor,Nashville,37243,6157412966,https://www.tn.gov/sbeschools,,36.16795,-86.787124,149,2021-01-25T18:07:59.000Z,ali.gaffey@tnedu.gov,2020-08-04T00:00:00.000Z,False,,3,Mid Cumberland CORE Region,Christie Southerland,(615) 532-3270,37210,0,0,0,0
840,Tipton County,1580 Highway 51 South ,,Covington,38019,9014767148,www.tipton-county.com/,https://eplan.tn.gov/DocumentLibrary/ViewDocument.aspx?DocumentGuid=b4cc0372-58fa-424c-8623-54e41077acce&inline=true,35.546891,-89.659793,128,2020-12-14T14:40:12.000Z,sherrie.yarbro@tneducation.net,2020-08-17T00:00:00.000Z,False,,9,Southwest CORE Region,Audrey Johnson,(901) 484-3389,38301,3,0,2,0
273,Trenton,201  W  10th St,,Trenton,38382,7318551191,https://www.trentonssd.org/,https://eplan.tn.gov/DocumentLibrary/ViewDocument.aspx?DocumentGuid=f166794a-137a-49b1-a32b-55a6e074b3a6&inline=true,35.968144,-88.945292,47,2020-09-14T19:19:35.000Z,stephanie.franks@tneducation.net,2020-08-10T00:00:00.000Z,False,,1,Northwest Tennessee CORE Region,Pennye Thurmond,(731) 881-7565,38229,0,0,0,0
850,Trousdale County,103 Lock Six Rd,,Hartsville,37074,6153742193,www.tcschools.org,https://eplan.tn.gov/DocumentLibrary/ViewDocument.aspx?DocumentGuid=d03519f6-9732-43a0-b0da-02e5d59b63ac&inline=true,36.38237,-86.139964,129,2021-01-10T17:44:59.000Z,clint.satterfield@tneducation.net,2020-07-28T00:00:00.000Z,False,,4,Upper Cumberland CORE Region,Janice Fox,(931) 544-7079,38501,1,1,0,1
162,Tullahoma,510  S  Jackson St,,Tullahoma,37388,9314542600,https://www.tcsedu.net/,https://eplan.tn.gov/DocumentLibrary/ViewDocument.aspx?DocumentGuid=51e03ddb-9551-4320-bedd-6a2cc0672021&inline=true,35.356005,-86.206484,31,2020-12-13T22:18:33.000Z,catherine.d.stephens@tneducation.net,2020-07-29T00:00:00.000Z,False,,8,South Central CORE Region,Bill Byford,(931) 488-3050,37160,0,0,0,0
860,Unicoi County,100 Nolichucky Ave,,Erwin,37650,4237431600,www.unicoischools.com,https://eplan.tn.gov/DocumentLibrary/ViewDocument.aspx?DocumentGuid=30318e04-8962-4f27-b5dd-955b79a78e1c&inline=true,36.146198,-82.416408,130,2020-09-14T20:23:30.000Z,john.english@tneducation.net,2020-08-10T00:00:00.000Z,False,,6,First Tennessee CORE Region,Dr. Greg Sturgill,(423) 357-3641,37642,,,,
661,Union City,408 South Depot St,,Union City,38261,7318853922,https://www.tornadotouch.net/,https://eplan.tn.gov/DocumentLibrary/ViewDocument.aspx?DocumentGuid=827500ce-c55f-4d06-8263-73eed97a0334&inline=true,36.421801,-89.057106,99,2021-02-22T14:26:42.000Z,wesley.kennedy8885@tneducation.net,2020-08-04T00:00:00.000Z,False,,1,Northwest Tennessee CORE Region,Pennye Thurmond,(731) 881-7565,38229,,,,
870,Union County,3006 Maynardville Hwy,,Maynardville,37807,8659925466,www.ucps.org,https://eplan.tn.gov/DocumentLibrary/ViewDocument.aspx?DocumentGuid=baeb50f8-4253-4642-988f-cc514e293f4c&inline=true,36.232197,-83.835389,131,2021-02-08T16:36:00.000Z,william.graham8076@tneducation.net,2020-08-04T00:00:00.000Z,False,,5,East Tennessee CORE Region,Ginger Leach,(865) 594-9445,37920,,,,
880,Van Buren County,293 Sparta St,,Spencer,38585,9319462242,www.vanburenschools.org,https://eplan.tn.gov/DocumentLibrary/ViewDocument.aspx?DocumentGuid=8a8f7612-f245-4c90-b91c-96dc7437bc84&inline=true,35.750484,-85.466355,132,2021-03-08T16:19:29.000Z,cheryl.cole@tneducation.net,2020-08-05T00:00:00.000Z,False,,4,Upper Cumberland CORE Region,Janice Fox,(931) 544-7079,38501,0,0,0,0
890,Warren County,2548 Morrison St,,McMinnville,37110,9316684022,www.warrenschools.com,https://eplan.tn.gov/DocumentLibrary/ViewDocument.aspx?DocumentGuid=74fccac6-4a8c-4481-9691-84ed03cde743&inline=true,35.653681,-85.810701,133,2020-11-23T19:20:45.000Z,grant.h.swallows@tneducation.net,2020-08-10T00:00:00.000Z,False,,4,Upper Cumberland CORE Region,Janice Fox,(931) 544-7079,38501,3,0,5,0
900,Washington County,405  W  College St,,Jonesborough,37659,4237531100,www.wcde.org,https://eplan.tn.gov/DocumentLibrary/ViewDocument.aspx?DocumentGuid=1b0edfdc-3d55-4ff0-b8d9-c28e7f88127a&inline=true,36.293129,-82.478788,134,2020-10-28T13:31:16.000Z,william.flanary@tneducation.net,2020-08-03T00:00:00.000Z,False,,6,First Tennessee CORE Region,Dr. Greg Sturgill,(423) 357-3641,37642,10,0,17,0
910,Wayne County,419 South Main St,,Waynesboro,38485,9317223548,www.wayne-lea.wayne.k12.tn.us/,https://eplan.tn.gov/DocumentLibrary/ViewDocument.aspx?DocumentGuid=53148b67-31d3-40b5-b42f-fe72f6f54090&inline=true,35.311941,-87.763196,136,2021-03-01T20:41:21.000Z,marlon.davis@tneducation.net,2020-08-12T00:00:00.000Z,False,,8,South Central CORE Region,Bill Byford,(931) 488-3050,37160,,,0,0
920,Weakley County,8319  Hwy  22 Suite A ,,Dresden,38225,7313642247,www.weakleycountyschools.com,https://eplan.tn.gov/DocumentLibrary/ViewDocument.aspx?DocumentGuid=ad0b5f93-a336-4cbe-a030-65232c5a8e10&inline=true,36.274938,-88.699485,137,2020-08-21T00:00:00.000Z,district.technology@tn.gov,2020-08-17T00:00:00.000Z,False,,1,Northwest Tennessee CORE Region,Pennye Thurmond,(731) 881-7565,38229,1,0,1,1
97,West Carroll Sp Dist,1415 Highway 77 ,,Atwood,38220,7316624200,https://www.wcssd.org/,https://eplan.tn.gov/DocumentLibrary/ViewDocument.aspx?DocumentGuid=b04dccc8-7f06-44ae-b696-655f0a76cf71&inline=true,35.97502,-88.644514,20,2020-09-07T15:43:48.000Z,district.technology@tn.gov,2020-08-04T00:00:00.000Z,False,,1,Northwest Tennessee CORE Region,Pennye Thurmond,(731) 881-7565,38229,0,0,0,0
960,West Tennessee School for the Deaf,100 Berryhill Dr,,Jackson,38301,7314235705,http://www.wtsd.tn.org/,https://eplan.tn.gov/DocumentLibrary/ViewDocument.aspx?DocumentGuid=2c5df7b5-8207-4163-b8a2-49273f550af1&inline=true,35.645273,-88.788694,143,2020-11-02T16:28:55.000Z,vicki.kirk8@tnedu.gov,2020-08-06T00:00:00.000Z,False,,9,Southwest CORE Region,Audrey Johnson,(901) 484-3389,38301,,,0,0
930,White County,576 Hale St,,Sparta,38583,9318362229,http://www.whitecoschools.net/,https://eplan.tn.gov/DocumentLibrary/ViewDocument.aspx?DocumentGuid=b90d6348-8f0a-413b-83e5-1b47e1cb5584&inline=true,35.958166,-85.475707,138,2020-09-11T18:13:21.000Z,kurt.dronebarger@tneducation.net,2020-08-07T00:00:00.000Z,False,,4,Upper Cumberland CORE Region,Janice Fox,(931) 544-7079,38501,,,10,0
940,Williamson County,1320 W  Main ,Suite 202,Franklin,37064,6154724000,www.wcs.edu,https://eplan.tn.gov/DocumentLibrary/ViewDocument.aspx?DocumentGuid=e123e111-22c7-47de-a1c5-ad07a0926924&inline=true,35.915877,-86.883991,139,2021-03-08T20:04:54.000Z,lydia.glynn@tneducation.net,2020-08-07T00:00:00.000Z,False,,3,Mid Cumberland CORE Region,Christie Southerland,(615) 532-3270,37210,9,0,8,0
950,Wilson County,415 Harding Dr,,Lebanon,37087,6154443282,www.wcschools.com/,https://eplan.tn.gov/DocumentLibrary/ViewDocument.aspx?DocumentGuid=e0a99e44-21aa-49a4-9c20-b1bb007050a1&inline=true,36.202802,-86.285385,141,2020-09-28T15:00:08.000Z,charles.whitlock@tneducation.net,2020-08-03T00:00:00.000Z,False,,3,Mid Cumberland CORE Region,Christie Southerland,(615) 532-3270,37210,0,0,7,0
